COSMOS 2419 (714)       
1 28915U 05050A   17267.83063323 -.00000012  00000-0  00000+0 0  9999
2 28915  65.5454  62.4969 0015872 358.4777 207.4275  2.13106733 91458
COSMOS 2425 (716)       
1 29670U 06062A   17267.66014028 -.00000017  00000-0  10000-3 0  9991
2 29670  65.4116 301.5090 0020111 338.8661 147.7797  2.13104967 83654
COSMOS 2426 (717)       
1 29671U 06062B   17268.33583516 -.00000013  00000-0  10000-3 0  9996
2 29671  65.4287 301.5778 0018860 172.4302 330.1889  2.13102964 83676
COSMOS 2424 (715)       
1 29672U 06062C   17267.62777821 -.00000017  00000-0  10000-3 0  9996
2 29672  65.4130 301.5218 0018236 171.5406 322.9831  2.13102374 83654
COSMOS 2433 (720)       
1 32275U 07052A   17268.58899692 -.00000006  00000-0  10000-3 0  9994
2 32275  65.5616  62.2520 0001259 194.1841 116.9989  2.13104679 77181
COSMOS 2432 (719)       
1 32276U 07052B   17267.71044684 -.00000013  00000-0  10000-3 0  9990
2 32276  65.5733  62.3544 0009692 345.2260 324.6260  2.13103970 77163
COSMOS 2434 (721)       
1 32393U 07065A   17267.61605791 -.00000017  00000-0  00000-0 0  9995
2 32393  65.0279 300.6131 0003600 152.7869  21.1011  2.13102942 75879
COSMOS 2436 (723)       
1 32395U 07065C   17267.93990378 -.00000015  00000-0  10000-3 0  9992
2 32395  65.0375 300.6475 0013276 351.2733 120.2501  2.13104334 75811
COSMOS 2443 (725)       
1 33379U 08046B   17267.93741271 -.00000012  00000-0  00000+0 0  9993
2 33379  65.4915  61.6476 0012972 176.4863 253.4897  2.13099612 70045
COSMOS 2456 (730)       
1 36111U 09070A   17267.73736207  .00000003  00000-0  00000-0 0  9999
2 36111  64.1803 180.1732 0005027 310.3751 128.0224  2.13103000 60546
COSMOS 2457 (733)       
1 36112U 09070B   17267.84670220  .00000002  00000-0  00000-0 0  9993
2 36112  64.1619 180.0864 0005998 171.1031 119.2869  2.13101777 60544
COSMOS 2458 (734)       
1 36113U 09070C   17267.55623981  .00000004  00000-0  10000-3 0  9990
2 36113  64.1686 180.1046 0001692 342.4912 133.1358  2.13101873 60545
COSMOS 2459 (731)       
1 36400U 10007A   17267.64358824 -.00000015  00000-0  10000-3 0  9995
2 36400  65.4707  61.3773 0026066 356.9361 170.2064  2.13102186 58898
COSMOS 2461 (735)       
1 36401U 10007B   17268.08944916 -.00000011  00000-0  10000-3 0  9994
2 36401  65.4631  61.3396 0008518  79.1234 340.6851  2.13102183 58907
COSMOS 2460 (732)       
1 36402U 10007C   17267.65159735 -.00000015  00000-0  10000-3 0  9998
2 36402  65.4537  61.3249 0002383 107.4480  17.5328  2.13101707 58890
COSMOS 2465 (737)       
1 37138U 10041B   17267.70123828 -.00000017  00000-0  00000+0 0  9990
2 37138  64.6245 300.5465 0036567 172.3660 110.2016  2.13097523 54963
COSMOS 2464 (736)       
1 37139U 10041C   17267.67906260 -.00000017  00000-0  00000+0 0  9996
2 37139  64.6313 300.5469 0021047   8.0846  81.8781  2.13102695 54961
COSMOS 2471 (701K)      
1 37372U 11009A   17267.86777689 -.00000013  00000-0  00000+0 0  9998
2 37372  65.4503  61.2652 0007283 220.6398 208.4484  2.13107666 51175
COSMOS 2474 (742)       
1 37829U 11055A   17268.41928991 -.00000002  00000-0  00000+0 0  9990
2 37829  64.5043 180.7562 0009083 250.8510 210.0381  2.13101954 46554
COSMOS 2476 (744)       
1 37867U 11064A   17268.10714471  .00000001  00000-0  00000+0 0  9992
2 37867  64.4850 180.8363 0018470 244.2790  23.1088  2.13101984 45894
COSMOS 2477 (745)       
1 37868U 11064B   17268.38003600 -.00000001  00000-0  00000+0 0  9999
2 37868  64.4926 180.8723 0016278 245.8236  49.9904  2.13101909 45851
COSMOS 2475 (743)       
1 37869U 11064C   17267.66350774  .00000004  00000-0  00000+0 0  9999
2 37869  64.4997 180.8892 0021001 270.6464 151.9652  2.13102253 45853
COSMOS 2485 (747)       
1 39155U 13019A   17267.50534513  .00000005  00000-0  00000-0 0  9991
2 39155  64.6538 180.9074 0018769 239.2450 331.4568  2.13102098 34353
COSMOS 2492 (754)       
1 39620U 14012A   17268.57821684 -.00000008  00000-0  10000-3 0  9996
2 39620  65.3443  61.2167 0012894 337.5713  10.5510  2.13103373 27322
COSMOS 2500 (755)       
1 40001U 14032A   17267.46190273 -.00000017  00000-0  00000+0 0  9998
2 40001  65.2847  61.2440 0006293 184.7319 249.8391  2.13102771 25523
COSMOS 2501 (702K)      
1 40315U 14075A   17268.18445971 -.00000017  00000-0  00000+0 0  9991
2 40315  64.3580 301.8368 0017010 210.6734 222.9977  2.13098605 21940
COSMOS 2514 (751)       
1 41330U 16008A   17267.71246416 -.00000015  00000-0  00000-0 0  9997
2 41330  65.0847  61.3549 0008954 201.0934 245.9370  2.13103364 12697
COSMOS 2516 (753)       
1 41554U 16032A   17267.73757184 -.00000019  00000-0  00000+0 0  9996
2 41554  64.5789 301.6440 0014494 222.2487 136.1282  2.13101643 10293
